STARLINK-30804          
1 58155U 23166F   26068.73864388 -.00002446  00000+0 -70546-4 0  9994
2 58155  53.1611 219.6057 0001155  81.1570 278.9562 15.30175871133180
LYNK TOWER 5            
1 59121U 24043Z   26068.92489786  .00009048  00000+0  31902-3 0  9994
2 59121  97.5458 204.7305 0010406 234.6422 125.3846 15.29454506111860
